[{"OBJECT_NAME":"DUPLEX","OBJECT_ID":"1998-067XS","EPOCH":"2026-04-15T16:09:42.764832","MEAN_MOTION":15.58618928,"ECCENTRICITY":0.00039169,"INCLINATION":51.6281,"RA_OF_ASC_NODE":244.1205,"ARG_OF_PERICENTER":295.6858,"MEAN_ANOMALY":64.373,"EPHEMERIS_TYPE":0,"CLASSIFICATION_TYPE":"U","NORAD_CAT_ID":66906,"ELEMENT_SET_NO":999,"REV_AT_EPOCH":2089,"BSTAR":0.00024591894,"MEAN_MOTION_DOT":0.00018775,"MEAN_MOTION_DDOT":0},{"OBJECT_NAME":"ISS OBJECT XT","OBJECT_ID":"1998-067XT","EPOCH":"2026-04-15T14:14:24.296064","MEAN_MOTION":15.86513416,"ECCENTRICITY":0.0010423,"INCLINATION":51.62,"RA_OF_ASC_NODE":235.2559,"ARG_OF_PERICENTER":315.1475,"MEAN_ANOMALY":44.8686,"EPHEMERIS_TYPE":0,"CLASSIFICATION_TYPE":"U","NORAD_CAT_ID":66907,"ELEMENT_SET_NO":999,"REV_AT_EPOCH":2100,"BSTAR":0.00097055,"MEAN_MOTION_DOT":0.00258484,"MEAN_MOTION_DDOT":0},{"OBJECT_NAME":"ISS OBJECT XU","OBJECT_ID":"1998-067XU","EPOCH":"2026-04-15T15:33:25.026048","MEAN_MOTION":15.87046437,"ECCENTRICITY":0.0010301,"INCLINATION":51.6202,"RA_OF_ASC_NODE":234.8663,"ARG_OF_PERICENTER":313.7349,"MEAN_ANOMALY":46.2802,"EPHEMERIS_TYPE":0,"CLASSIFICATION_TYPE":"U","NORAD_CAT_ID":66908,"ELEMENT_SET_NO":999,"REV_AT_EPOCH":2101,"BSTAR":0.001009,"MEAN_MOTION_DOT":0.00276419,"MEAN_MOTION_DDOT":0},{"OBJECT_NAME":"SILVERSAT","OBJECT_ID":"1998-067XV","EPOCH":"2026-04-15T01:40:07.862880","MEAN_MOTION":15.99998535,"ECCENTRICITY":0.00136044,"INCLINATION":51.614,"RA_OF_ASC_NODE":235.4536,"ARG_OF_PERICENTER":318.973,"MEAN_ANOMALY":41.0255,"EPHEMERIS_TYPE":0,"CLASSIFICATION_TYPE":"U","NORAD_CAT_ID":66909,"ELEMENT_SET_NO":999,"REV_AT_EPOCH":2095,"BSTAR":0.0012551521,"MEAN_MOTION_DOT":0.00663705,"MEAN_MOTION_DDOT":0.00020908101},{"OBJECT_NAME":"ISS OBJECT XW","OBJECT_ID":"1998-067XW","EPOCH":"2026-04-15T15:01:49.779840","MEAN_MOTION":15.83227178,"ECCENTRICITY":0.00097779,"INCLINATION":51.619,"RA_OF_ASC_NODE":235.4701,"ARG_OF_PERICENTER":309.4685,"MEAN_ANOMALY":50.5452,"EPHEMERIS_TYPE":0,"CLASSIFICATION_TYPE":"U","NORAD_CAT_ID":66910,"ELEMENT_SET_NO":999,"REV_AT_EPOCH":2100,"BSTAR":0.00082769693,"MEAN_MOTION_DOT":0.00186462,"MEAN_MOTION_DDOT":0},{"OBJECT_NAME":"ISS OBJECT XY","OBJECT_ID":"1998-067XY","EPOCH":"2026-04-15T16:21:31.525632","MEAN_MOTION":15.71912015,"ECCENTRICITY":0.00066257,"INCLINATION":51.6236,"RA_OF_ASC_NODE":238.8979,"ARG_OF_PERICENTER":305.6183,"MEAN_ANOMALY":54.4198,"EPHEMERIS_TYPE":0,"CLASSIFICATION_TYPE":"U","NORAD_CAT_ID":66912,"ELEMENT_SET_NO":999,"REV_AT_EPOCH":2095,"BSTAR":0.00063110625,"MEAN_MOTION_DOT":0.00084317,"MEAN_MOTION_DDOT":0},{"OBJECT_NAME":"KNACKSAT-2","OBJECT_ID":"1998-067XZ","EPOCH":"2026-04-15T18:46:55.761312","MEAN_MOTION":15.54923945,"ECCENTRICITY":0.00114984,"INCLINATION":51.6306,"RA_OF_ASC_NODE":247.103,"ARG_OF_PERICENTER":325.8879,"MEAN_ANOMALY":34.1372,"EPHEMERIS_TYPE":0,"CLASSIFICATION_TYPE":"U","NORAD_CAT_ID":67683,"ELEMENT_SET_NO":999,"REV_AT_EPOCH":1055,"BSTAR":0.00039372603,"MEAN_MOTION_DOT":0.00026505,"MEAN_MOTION_DDOT":0},{"OBJECT_NAME":"CORAL","OBJECT_ID":"1998-067YA","EPOCH":"2026-04-15T15:43:30.084384","MEAN_MOTION":15.6095017,"ECCENTRICITY":0.0015091,"INCLINATION":51.6288,"RA_OF_ASC_NODE":246.2488,"ARG_OF_PERICENTER":317.4992,"MEAN_ANOMALY":42.4832,"EPHEMERIS_TYPE":0,"CLASSIFICATION_TYPE":"U","NORAD_CAT_ID":67684,"ELEMENT_SET_NO":999,"REV_AT_EPOCH":1055,"BSTAR":0.00070726,"MEAN_MOTION_DOT":0.0006071,"MEAN_MOTION_DDOT":0},{"OBJECT_NAME":"GXIBA-1","OBJECT_ID":"1998-067YB","EPOCH":"2026-04-15T15:16:43.991328","MEAN_MOTION":15.55649076,"ECCENTRICITY":0.0013407,"INCLINATION":51.6294,"RA_OF_ASC_NODE":247.6274,"ARG_OF_PERICENTER":322.0719,"MEAN_ANOMALY":37.9327,"EPHEMERIS_TYPE":0,"CLASSIFICATION_TYPE":"U","NORAD_CAT_ID":67685,"ELEMENT_SET_NO":999,"REV_AT_EPOCH":1053,"BSTAR":0.00040774,"MEAN_MOTION_DOT":0.00028254,"MEAN_MOTION_DDOT":0},{"OBJECT_NAME":"UITMSAT-2","OBJECT_ID":"1998-067YC","EPOCH":"2026-04-15T14:36:06.927264","MEAN_MOTION":15.57033461,"ECCENTRICITY":0.00103237,"INCLINATION":51.6289,"RA_OF_ASC_NODE":247.4407,"ARG_OF_PERICENTER":300.6666,"MEAN_ANOMALY":59.3308,"EPHEMERIS_TYPE":0,"CLASSIFICATION_TYPE":"U","NORAD_CAT_ID":67686,"ELEMENT_SET_NO":999,"REV_AT_EPOCH":1053,"BSTAR":0.00048101943,"MEAN_MOTION_DOT":0.00035179,"MEAN_MOTION_DDOT":0},{"OBJECT_NAME":"HMU-SAT2","OBJECT_ID":"1998-067YD","EPOCH":"2026-04-15T15:28:30.339840","MEAN_MOTION":15.55335019,"ECCENTRICITY":0.00097388,"INCLINATION":51.6309,"RA_OF_ASC_NODE":247.6867,"ARG_OF_PERICENTER":302.7323,"MEAN_ANOMALY":57.2729,"EPHEMERIS_TYPE":0,"CLASSIFICATION_TYPE":"U","NORAD_CAT_ID":67687,"ELEMENT_SET_NO":999,"REV_AT_EPOCH":1045,"BSTAR":0.00040169345,"MEAN_MOTION_DOT":0.00027451,"MEAN_MOTION_DDOT":0},{"OBJECT_NAME":"LEOPARD","OBJECT_ID":"1998-067YE","EPOCH":"2026-04-15T16:27:05.793408","MEAN_MOTION":15.56407127,"ECCENTRICITY":0.000999,"INCLINATION":51.6293,"RA_OF_ASC_NODE":247.2066,"ARG_OF_PERICENTER":301.5741,"MEAN_ANOMALY":58.4275,"EPHEMERIS_TYPE":0,"CLASSIFICATION_TYPE":"U","NORAD_CAT_ID":67688,"ELEMENT_SET_NO":999,"REV_AT_EPOCH":1046,"BSTAR":0.00044765824,"MEAN_MOTION_DOT":0.00031924,"MEAN_MOTION_DDOT":0},{"OBJECT_NAME":"CREW DRAGON 12","OBJECT_ID":"2026-031A","EPOCH":"2026-04-15T21:02:24.611136","MEAN_MOTION":15.48928061,"ECCENTRICITY":0.00065987,"INCLINATION":51.6326,"RA_OF_ASC_NODE":248.4785,"ARG_OF_PERICENTER":317.1782,"MEAN_ANOMALY":42.8691,"EPHEMERIS_TYPE":0,"CLASSIFICATION_TYPE":"U","NORAD_CAT_ID":67796,"ELEMENT_SET_NO":999,"REV_AT_EPOCH":56214,"BSTAR":0.00010764865,"MEAN_MOTION_DOT":5.471e-5,"MEAN_MOTION_DDOT":0},{"OBJECT_NAME":"PROGRESS-MS 33","OBJECT_ID":"2026-058A","EPOCH":"2026-04-15T21:02:24.611136","MEAN_MOTION":15.48928061,"ECCENTRICITY":0.00065987,"INCLINATION":51.6326,"RA_OF_ASC_NODE":248.4785,"ARG_OF_PERICENTER":317.1782,"MEAN_ANOMALY":42.8691,"EPHEMERIS_TYPE":0,"CLASSIFICATION_TYPE":"U","NORAD_CAT_ID":68319,"ELEMENT_SET_NO":999,"REV_AT_EPOCH":316,"BSTAR":0.00010764865,"MEAN_MOTION_DOT":5.471e-5,"MEAN_MOTION_DDOT":0},{"OBJECT_NAME":"CYGNUS NG-24","OBJECT_ID":"2026-079A","EPOCH":"2026-04-15T21:02:24.611136","MEAN_MOTION":15.48928061,"ECCENTRICITY":0.00065987,"INCLINATION":51.6326,"RA_OF_ASC_NODE":248.4785,"ARG_OF_PERICENTER":317.1782,"MEAN_ANOMALY":42.8691,"EPHEMERIS_TYPE":0,"CLASSIFICATION_TYPE":"U","NORAD_CAT_ID":68689,"ELEMENT_SET_NO":999,"REV_AT_EPOCH":62,"BSTAR":0.00010764865,"MEAN_MOTION_DOT":5.471e-5,"MEAN_MOTION_DDOT":0}]
